start=new Date('2022-12-19T00:00:00.000Z').valueOf();
sats=[{"DECAY_DATE":null,"OBJECT_NAME":"STARLINK-3311","GP_ID":"220869386","TIME_SYSTEM":"UTC","OBJECT_ID":"2022-001AY","CLASSIFICATION_TYPE":"U","MEAN_MOTION_DDOT":"0.0000000000000","ARG_OF_PERICENTER":"29.7094","COUNTRY_CODE":"US","TLE_LINE2":"2 50849  53.2184  61.8882 0002463  29.7094 330.4037 15.08831005 52615","ELEMENT_SET_NO":"999","PERIAPSIS":"538.069","CENTER_NAME":"EARTH","RA_OF_ASC_NODE":"61.8882","PERIOD":"95.438","MEAN_ANOMALY":"330.4037","EPOCH":"2022-12-18T21:55:52.652640","OBJECT_TYPE":"PAYLOAD","EPHEMERIS_TYPE":"0","BSTAR":"0.00000992260000","FILE":"3709623","SEMIMAJOR_AXIS":"6917.908","RCS_SIZE":"LARGE","MEAN_MOTION_DOT":"-0.00000131","SITE":"AFETR","MEAN_ELEMENT_THEORY":"SGP4","NORAD_CAT_ID":"50849","LAUNCH_DATE":"2022-01-06","ECCENTRICITY":"0.00024630","REV_AT_EPOCH":"5261","APOAPSIS":"541.477","MEAN_MOTION":"15.08831005","INCLINATION":"53.2184","TLE_LINE1":"1 50849U 22001AY  22352.91380385 -.00000131  00000-0  99226-5 0  9991","REF_FRAME":"TEME"},{"GP_ID":"220870136","OBJECT_NAME":"STARLINK-3312","DECAY_DATE":null,"RA_OF_ASC_NODE":"22.4573","COUNTRY_CODE":"US","TLE_LINE2":"2 50850  53.2188  22.4573 0002610  28.2778 331.8355 15.08835686 53694","ELEMENT_SET_NO":"999","PERIAPSIS":"537.953","CENTER_NAME":"EARTH","MEAN_MOTION_DDOT":"0.0000000000000","CLASSIFICATION_TYPE":"U","ARG_OF_PERICENTER":"28.2778","TIME_SYSTEM":"UTC","OBJECT_ID":"2022-001AZ","RCS_SIZE":"LARGE","FILE":"3709623","SEMIMAJOR_AXIS":"6917.894","MEAN_MOTION_DOT":"0.00001286","SITE":"AFETR","BSTAR":"0.00009892400000","EPHEMERIS_TYPE":"0","MEAN_ANOMALY":"331.8355","EPOCH":"2022-12-18T18:50:24.554688","OBJECT_TYPE":"PAYLOAD","PERIOD":"95.438","TLE_LINE1":"1 50850U 22001AZ  22352.78500642  .00001286  00000-0  98924-4 0  9992","REF_FRAME":"TEME","APOAPSIS":"541.564","MEAN_MOTION":"15.08835686","INCLINATION":"53.2188","REV_AT_EPOCH":"5369","MEAN_ELEMENT_THEORY":"SGP4","NORAD_CAT_ID":"50850","LAUNCH_DATE":"2022-01-06","ECCENTRICITY":"0.00026100"},{"PERIOD":"95.438","MEAN_ANOMALY":"329.7566","OBJECT_TYPE":"PAYLOAD","EPOCH":"2022-12-18T12:02:22.467552","BSTAR":"0.00002546500000","EPHEMERIS_TYPE":"0","MEAN_MOTION_DOT":"0.00000117","SEMIMAJOR_AXIS":"6917.912","FILE":"3708942","RCS_SIZE":"LARGE","SITE":"AFETR","MEAN_ELEMENT_THEORY":"SGP4","LAUNCH_DATE":"2022-01-06","ECCENTRICITY":"0.00023800","NORAD_CAT_ID":"50851","REV_AT_EPOCH":"5255","MEAN_MOTION":"15.08829774","APOAPSIS":"541.423","INCLINATION":"53.2183","TLE_LINE1":"1 50851U 22001BA  22352.50164893  .00000117  00000-0  25465-4 0  9999","REF_FRAME":"TEME","DECAY_DATE":null,"GP_ID":"220828832","OBJECT_NAME":"STARLINK-3314","TIME_SYSTEM":"UTC","OBJECT_ID":"2022-001BA","MEAN_MOTION_DDOT":"0.0000000000000","CLASSIFICATION_TYPE":"U","ARG_OF_PERICENTER":"30.3563","TLE_LINE2":"2 50851  53.2183  63.7395 0002380  30.3563 329.7566 15.08829774 52555","COUNTRY_CODE":"US","CENTER_NAME":"EARTH","ELEMENT_SET_NO":"999","PERIAPSIS":"538.130","RA_OF_ASC_NODE":"63.7395"},{"REV_AT_EPOCH":"5120","LAUNCH_DATE":"2022-01-19","ECCENTRICITY":"0.00028120","NORAD_CAT_ID":"51104","MEAN_ELEMENT_THEORY":"SGP4","REF_FRAME":"TEME","TLE_LINE1":"1 51104U 22005A   22352.78592406 -.00000119  00000-0  10668-4 0  9992","INCLINATION":"53.2171","MEAN_MOTION":"15.08835283","APOAPSIS":"541.705","EPOCH":"2022-12-18T18:51:43.838784","OBJECT_TYPE":"PAYLOAD","MEAN_ANOMALY":"320.9266","PERIOD":"95.438","SITE":"AFETR","MEAN_MOTION_DOT":"-0.00000119","SEMIMAJOR_AXIS":"6917.895","FILE":"3709623","RCS_SIZE":"LARGE","EPHEMERIS_TYPE":"0","BSTAR":"0.00001066800000","ARG_OF_PERICENTER":"39.1929","MEAN_MOTION_DDOT":"0.0000000000000","CLASSIFICATION_TYPE":"U","OBJECT_ID":"2022-005A","TIME_SYSTEM":"UTC","RA_OF_ASC_NODE":"172.4533","CENTER_NAME":"EARTH","PERIAPSIS":"537.814","ELEMENT_SET_NO":"999","TLE_LINE2":"2 51104  53.2171 172.4533 0002812  39.1929 320.9266 15.08835283 51202","COUNTRY_CODE":"US","GP_ID":"220870406","OBJECT_NAME":"STARLINK-3366","DECAY_DATE":null},{"RA_OF_ASC_NODE":"171.9820","TLE_LINE2":"2 51105  53.2150 171.9820 0002553  40.8582 319.2601 15.08843734 51225","COUNTRY_CODE":"US","CENTER_NAME":"EARTH","ELEMENT_SET_NO":"999","PERIAPSIS":"537.968","MEAN_MOTION_DDOT":"0.0000000000000","CLASSIFICATION_TYPE":"U","ARG_OF_PERICENTER":"40.8582","TIME_SYSTEM":"UTC","OBJECT_ID":"2022-005B","GP_ID":"220871152","OBJECT_NAME":"STARLINK-3350","DECAY_DATE":null,"TLE_LINE1":"1 51105U 22005B   22352.89265139  .00001040  00000-0  83444-4 0  9990","REF_FRAME":"TEME","MEAN_MOTION":"15.08843734","APOAPSIS":"541.500","INCLINATION":"53.2150","REV_AT_EPOCH":"5122","MEAN_ELEMENT_THEORY":"SGP4","ECCENTRICITY":"0.00025530","LAUNCH_DATE":"2022-01-19","NORAD_CAT_ID":"51105","MEAN_MOTION_DOT":"0.00001040","FILE":"3709623","SEMIMAJOR_AXIS":"6917.869","RCS_SIZE":"LARGE","SITE":"AFETR","EPHEMERIS_TYPE":"0","BSTAR":"0.00008344400000","MEAN_ANOMALY":"319.2601","EPOCH":"2022-12-18T21:25:25.080096","OBJECT_TYPE":"PAYLOAD","PERIOD":"95.437"},{"REV_AT_EPOCH":"5120","NORAD_CAT_ID":"51106","LAUNCH_DATE":"2022-01-19","ECCENTRICITY":"0.00036540","MEAN_ELEMENT_THEORY":"SGP4","REF_FRAME":"TEME","TLE_LINE1":"1 51106U 22005C   22352.80432995  .00000097  00000-0  24247-4 0  9995","INCLINATION":"53.2160","APOAPSIS":"542.277","MEAN_MOTION":"15.08838772","OBJECT_TYPE":"PAYLOAD","EPOCH":"2022-12-18T19:18:14.107680","MEAN_ANOMALY":"310.2888","PERIOD":"95.438","SITE":"AFETR","RCS_SIZE":"LARGE","FILE":"3709623","SEMIMAJOR_AXIS":"6917.884","MEAN_MOTION_DOT":"0.00000097","BSTAR":"0.00002424700000","EPHEMERIS_TYPE":"0","ARG_OF_PERICENTER":"49.8424","MEAN_MOTION_DDOT":"0.0000000000000","CLASSIFICATION_TYPE":"U","OBJECT_ID":"2022-005C","TIME_SYSTEM":"UTC","RA_OF_ASC_NODE":"172.3532","ELEMENT_SET_NO":"999","PERIAPSIS":"537.221","CENTER_NAME":"EARTH","COUNTRY_CODE":"US","TLE_LINE2":"2 51106  53.2160 172.3532 0003654  49.8424 310.2888 15.08838772 51201","GP_ID":"220869904","OBJECT_NAME":"STARLINK-3176","DECAY_DATE":null},{"REV_AT_EPOCH":"5107","LAUNCH_DATE":"2022-01-19","ECCENTRICITY":"0.00030260","NORAD_CAT_ID":"51107","MEAN_ELEMENT_THEORY":"SGP4","REF_FRAME":"TEME","TLE_LINE1":"1 51107U 22005D   22352.80437291  .00004290  00000-0  28749-3 0  9999","INCLINATION":"53.2135","MEAN_MOTION":"15.08842254","APOAPSIS":"541.832","EPOCH":"2022-12-18T19:18:17.819424","OBJECT_TYPE":"PAYLOAD","MEAN_ANOMALY":"325.5282","PERIOD":"95.437","SITE":"AFETR","MEAN_MOTION_DOT":"0.00004290","FILE":"3709623","RCS_SIZE":"LARGE","SEMIMAJOR_AXIS":"6917.873","BSTAR":"0.00028749000000","EPHEMERIS_TYPE":"0","ARG_OF_PERICENTER":"34.5907","MEAN_MOTION_DDOT":"0.0000000000000","CLASSIFICATION_TYPE":"U","OBJECT_ID":"2022-005D","TIME_SYSTEM":"UTC","RA_OF_ASC_NODE":"182.3718","CENTER_NAME":"EARTH","PERIAPSIS":"537.645","ELEMENT_SET_NO":"999","TLE_LINE2":"2 51107  53.2135 182.3718 0003026  34.5907 325.5282 15.08842254 51073","COUNTRY_CODE":"US","OBJECT_NAME":"STARLINK-3368","GP_ID":"220869655","DECAY_DATE":null},{"MEAN_MOTION_DOT":"0.00001540","RCS_SIZE":"LARGE","FILE":"3709623","SEMIMAJOR_AXIS":"6917.887","SITE":"AFETR","EPHEMERIS_TYPE":"0","BSTAR":"0.00011486000000","MEAN_ANOMALY":"315.5098","EPOCH":"2022-12-18T21:20:07.000224","OBJECT_TYPE":"PAYLOAD","PERIOD":"95.438","TLE_LINE1":"1 51108U 22005E   22352.88896991  .00001540  00000-0  11486-3 0  9999","REF_FRAME":"TEME","MEAN_MOTION":"15.08837827","APOAPSIS":"541.896","INCLINATION":"53.2155","REV_AT_EPOCH":"5122","MEAN_ELEMENT_THEORY":"SGP4","LAUNCH_DATE":"2022-01-19","ECCENTRICITY":"0.00030990","NORAD_CAT_ID":"51108","OBJECT_NAME":"STARLINK-3362","GP_ID":"220870906","DECAY_DATE":null,"RA_OF_ASC_NODE":"171.9896","TLE_LINE2":"2 51108  53.2155 171.9896 0003099  44.6143 315.5098 15.08837827 51222","COUNTRY_CODE":"US","CENTER_NAME":"EARTH","ELEMENT_SET_NO":"999","PERIAPSIS":"537.608","CLASSIFICATION_TYPE":"U","MEAN_MOTION_DDOT":"0.0000000000000","ARG_OF_PERICENTER":"44.6143","TIME_SYSTEM":"UTC","OBJECT_ID":"2022-005E"},{"ARG_OF_PERICENTER":"48.0997","MEAN_MOTION_DDOT":"0.0000000000000","CLASSIFICATION_TYPE":"U","OBJECT_ID":"2022-005F","TIME_SYSTEM":"UTC","RA_OF_ASC_NODE":"172.4656","CENTER_NAME":"EARTH","ELEMENT_SET_NO":"999","PERIAPSIS":"537.694","TLE_LINE2":"2 51109  53.2159 172.4656 0002948  48.0997 312.0247 15.08843887 50976","COUNTRY_CODE":"US","OBJECT_NAME":"STARLINK-3358","GP_ID":"220870654","DECAY_DATE":null,"REV_AT_EPOCH":"5097","LAUNCH_DATE":"2022-01-19","ECCENTRICITY":"0.00029480","NORAD_CAT_ID":"51109","MEAN_ELEMENT_THEORY":"SGP4","REF_FRAME":"TEME","TLE_LINE1":"1 51109U 22005F   22352.77952430  .00001849  00000-0  13426-3 0  9997","INCLINATION":"53.2159","MEAN_MOTION":"15.08843887","APOAPSIS":"541.773","OBJECT_TYPE":"PAYLOAD","EPOCH":"2022-12-18T18:42:30.899520","MEAN_ANOMALY":"312.0247","PERIOD":"95.437","SITE":"AFETR","MEAN_MOTION_DOT":"0.00001849","SEMIMAJOR_AXIS":"6917.869","FILE":"3709623","RCS_SIZE":"LARGE","EPHEMERIS_TYPE":"0","BSTAR":"0.00013426000000"},{"MEAN_MOTION_DOT":"0.00000230","SEMIMAJOR_AXIS":"6917.885","FILE":"3709623","RCS_SIZE":"LARGE","SITE":"AFETR","BSTAR":"0.00003256900000","EPHEMERIS_TYPE":"0","MEAN_ANOMALY":"325.4161","EPOCH":"2022-12-18T19:34:07.603392","OBJECT_TYPE":"PAYLOAD","PERIOD":"95.438","TLE_LINE1":"1 51110U 22005G   22352.81536578  .00000230  00000-0  32569-4 0  9998","REF_FRAME":"TEME","MEAN_MOTION":"15.08838528","APOAPSIS":"541.748","INCLINATION":"53.2162","REV_AT_EPOCH":"5121","MEAN_ELEMENT_THEORY":"SGP4","LAUNCH_DATE":"2022-01-19","ECCENTRICITY":"0.00028880","NORAD_CAT_ID":"51110","OBJECT_NAME":"STARLINK-3344","GP_ID":"220869405","DECAY_DATE":null,"RA_OF_ASC_NODE":"172.3250","TLE_LINE2":"2 51110  53.2162 172.3250 0002888  34.7019 325.4161 15.08838528 51218","COUNTRY_CODE":"US","CENTER_NAME":"EARTH","ELEMENT_SET_NO":"999","PERIAPSIS":"537.752","MEAN_MOTION_DDOT":"0.0000000000000","CLASSIFICATION_TYPE":"U","ARG_OF_PERICENTER":"34.7019","TIME_SYSTEM":"UTC","OBJECT_ID":"2022-005G"}];
